ELYSIUM STAR 2 & LFF    
1 43760U 18099C   24217.93548843  .00149959  00000+0  49326-2 0  9999
2 43760  97.5133 285.9646 0006285 114.6874 245.5021 15.30878061310688
